[{"OBJECT_NAME":"STARLINK-35271","OBJECT_ID":"2025-218X","EPOCH":"2026-03-09T14:56:33.689760","MEAN_MOTION":15.05655457,"ECCENTRICITY":0.0002154,"INCLINATION":97.6024,"RA_OF_ASC_NODE":292.9511,"ARG_OF_PERICENTER":90.931,"MEAN_ANOMALY":269.2163,"EPHEMERIS_TYPE":0,"CLASSIFICATION_TYPE":"U","NORAD_CAT_ID":65812,"ELEMENT_SET_NO":999,"REV_AT_EPOCH":2496,"BSTAR":0.00026409,"MEAN_MOTION_DOT":3.752e-5,"MEAN_MOTION_DDOT":0},{"OBJECT_NAME":"CZ-2D DEB","OBJECT_ID":"2017-060B","EPOCH":"2026-03-09T14:15:36.855648","MEAN_MOTION":14.99543568,"ECCENTRICITY":0.002893,"INCLINATION":97.5408,"RA_OF_ASC_NODE":90.0945,"ARG_OF_PERICENTER":284.1616,"MEAN_ANOMALY":75.6394,"EPHEMERIS_TYPE":0,"CLASSIFICATION_TYPE":"U","NORAD_CAT_ID":44609,"ELEMENT_SET_NO":999,"REV_AT_EPOCH":45025,"BSTAR":0.00057261,"MEAN_MOTION_DOT":7.042e-5,"MEAN_MOTION_DDOT":0}]
